HIMAWARI-8              
1 40267U 14060A   23341.72827069 -.00000249  00000+0  00000+0 0  9998
2 40267   0.0296 129.0397 0000858 150.0635 199.9777  1.00271373 33616
